CCSDS_OMM_VERS = 2.0
CREATION_DATE  = 
ORIGINATOR     = 

OBJECT_NAME    = ATLAS CENTAUR R/B
OBJECT_ID      = 1972-065B
CENTER_NAME    = EARTH
REF_FRAME      = TEME
TIME_SYSTEM    = UTC
MEAN_ELEMENT_THEORY = SGP/SGP4

EPOCH          = 2026-01-31T17:35:57.857856
MEAN_MOTION    = 14.77573103
ECCENTRICITY   = .00331758
INCLINATION    = 35.0003
RA_OF_ASC_NODE = 162.3108
ARG_OF_PERICENTER = 58.4590
MEAN_ANOMALY   = 301.9344

EPHEMERIS_TYPE = 0
CLASSIFICATION_TYPE = U
NORAD_CAT_ID   = 6155
ELEMENT_SET_NO = 999
REV_AT_EPOCH   = 83579
BSTAR          = .20098261E-3
MEAN_MOTION_DOT = .1448E-4
MEAN_MOTION_DDOT = 0

CCSDS_OMM_VERS = 2.0
CREATION_DATE  = 
ORIGINATOR     = 

OBJECT_NAME    = SL-8 R/B
OBJECT_ID      = 1975-112B
CENTER_NAME    = EARTH
REF_FRAME      = TEME
TIME_SYSTEM    = UTC
MEAN_ELEMENT_THEORY = SGP/SGP4

EPOCH          = 2026-02-01T02:57:33.269472
MEAN_MOTION    = 14.38184675
ECCENTRICITY   = .0015752
INCLINATION    = 74.0598
RA_OF_ASC_NODE = 86.1830
ARG_OF_PERICENTER = 191.3400
MEAN_ANOMALY   = 168.7402

EPHEMERIS_TYPE = 0
CLASSIFICATION_TYPE = U
NORAD_CAT_ID   = 8459
ELEMENT_SET_NO = 999
REV_AT_EPOCH   = 62661
BSTAR          = .85914393E-4
MEAN_MOTION_DOT = .235E-5
MEAN_MOTION_DDOT = 0

CCSDS_OMM_VERS = 2.0
CREATION_DATE  = 
ORIGINATOR     = 

OBJECT_NAME    = SL-3 R/B
OBJECT_ID      = 1977-057B
CENTER_NAME    = EARTH
REF_FRAME      = TEME
TIME_SYSTEM    = UTC
MEAN_ELEMENT_THEORY = SGP/SGP4

EPOCH          = 2026-02-01T01:25:42.714624
MEAN_MOTION    = 15.44410204
ECCENTRICITY   = .00084047
INCLINATION    = 97.5713
RA_OF_ASC_NODE = 202.4110
ARG_OF_PERICENTER = 59.8005
MEAN_ANOMALY   = 300.4074

EPHEMERIS_TYPE = 0
CLASSIFICATION_TYPE = U
NORAD_CAT_ID   = 10114
ELEMENT_SET_NO = 999
REV_AT_EPOCH   = 66267
BSTAR          = .25622578E-3
MEAN_MOTION_DOT = .11766E-3
MEAN_MOTION_DDOT = 0

CCSDS_OMM_VERS = 2.0
CREATION_DATE  = 
ORIGINATOR     = 

OBJECT_NAME    = SEASAT 1
OBJECT_ID      = 1978-064A
CENTER_NAME    = EARTH
REF_FRAME      = TEME
TIME_SYSTEM    = UTC
MEAN_ELEMENT_THEORY = SGP/SGP4

EPOCH          = 2026-02-01T07:38:53.207232
MEAN_MOTION    = 14.46127665
ECCENTRICITY   = .00014182
INCLINATION    = 108.0165
RA_OF_ASC_NODE = 49.1691
ARG_OF_PERICENTER = 290.3265
MEAN_ANOMALY   = 69.7728

EPHEMERIS_TYPE = 0
CLASSIFICATION_TYPE = U
NORAD_CAT_ID   = 10967
ELEMENT_SET_NO = 999
REV_AT_EPOCH   = 50125
BSTAR          = .13166987E-3
MEAN_MOTION_DOT = .333E-5
MEAN_MOTION_DDOT = 0

CCSDS_OMM_VERS = 2.0
CREATION_DATE  = 
ORIGINATOR     = 

OBJECT_NAME    = SL-14 R/B
OBJECT_ID      = 1979-011B
CENTER_NAME    = EARTH
REF_FRAME      = TEME
TIME_SYSTEM    = UTC
MEAN_ELEMENT_THEORY = SGP/SGP4

EPOCH          = 2026-01-31T18:12:10.962144
MEAN_MOTION    = 14.91858290
ECCENTRICITY   = .00161355
INCLINATION    = 82.5262
RA_OF_ASC_NODE = 131.6091
ARG_OF_PERICENTER = 175.7366
MEAN_ANOMALY   = 184.3994

EPHEMERIS_TYPE = 0
CLASSIFICATION_TYPE = U
NORAD_CAT_ID   = 11267
ELEMENT_SET_NO = 999
REV_AT_EPOCH   = 52327
BSTAR          = .78409763E-4
MEAN_MOTION_DOT = .819E-5
MEAN_MOTION_DDOT = 0

CCSDS_OMM_VERS = 2.0
CREATION_DATE  = 
ORIGINATOR     = 

OBJECT_NAME    = SL-8 R/B
OBJECT_ID      = 1979-089B
CENTER_NAME    = EARTH
REF_FRAME      = TEME
TIME_SYSTEM    = UTC
MEAN_ELEMENT_THEORY = SGP/SGP4

EPOCH          = 2026-01-31T18:38:24.192960
MEAN_MOTION    = 14.42325667
ECCENTRICITY   = .001625
INCLINATION    = 74.0694
RA_OF_ASC_NODE = 159.3689
ARG_OF_PERICENTER = 337.0632
MEAN_ANOMALY   = 22.9796

EPHEMERIS_TYPE = 0
CLASSIFICATION_TYPE = U
NORAD_CAT_ID   = 11574
ELEMENT_SET_NO = 999
REV_AT_EPOCH   = 43078
BSTAR          = .1126844E-3
MEAN_MOTION_DOT = .346E-5
MEAN_MOTION_DDOT = 0

CCSDS_OMM_VERS = 2.0
CREATION_DATE  = 
ORIGINATOR     = 

OBJECT_NAME    = SL-14 R/B
OBJECT_ID      = 1980-005B
CENTER_NAME    = EARTH
REF_FRAME      = TEME
TIME_SYSTEM    = UTC
MEAN_ELEMENT_THEORY = SGP/SGP4

EPOCH          = 2026-01-31T22:45:57.603168
MEAN_MOTION    = 14.90876407
ECCENTRICITY   = .00142113
INCLINATION    = 82.5168
RA_OF_ASC_NODE = 342.0765
ARG_OF_PERICENTER = 288.3604
MEAN_ANOMALY   = 71.6069

EPHEMERIS_TYPE = 0
CLASSIFICATION_TYPE = U
NORAD_CAT_ID   = 11672
ELEMENT_SET_NO = 999
REV_AT_EPOCH   = 47101
BSTAR          = .7770639E-4
MEAN_MOTION_DOT = .792E-5
MEAN_MOTION_DDOT = 0

CCSDS_OMM_VERS = 2.0
CREATION_DATE  = 
ORIGINATOR     = 

OBJECT_NAME    = SL-8 R/B
OBJECT_ID      = 1981-003B
CENTER_NAME    = EARTH
REF_FRAME      = TEME
TIME_SYSTEM    = UTC
MEAN_ELEMENT_THEORY = SGP/SGP4

EPOCH          = 2026-01-31T21:32:05.207136
MEAN_MOTION    = 15.09542500
ECCENTRICITY   = .0265216
INCLINATION    = 82.9397
RA_OF_ASC_NODE = 324.0080
ARG_OF_PERICENTER = 307.2887
MEAN_ANOMALY   = 50.4425

EPHEMERIS_TYPE = 0
CLASSIFICATION_TYPE = U
NORAD_CAT_ID   = 12139
ELEMENT_SET_NO = 999
REV_AT_EPOCH   = 30912
BSTAR          = .59742047E-3
MEAN_MOTION_DOT = .22499E-3
MEAN_MOTION_DDOT = 0

CCSDS_OMM_VERS = 2.0
CREATION_DATE  = 
ORIGINATOR     = 

OBJECT_NAME    = SL-3 R/B
OBJECT_ID      = 1981-046B
CENTER_NAME    = EARTH
REF_FRAME      = TEME
TIME_SYSTEM    = UTC
MEAN_ELEMENT_THEORY = SGP/SGP4

EPOCH          = 2026-02-01T02:35:48.596640
MEAN_MOTION    = 15.40947750
ECCENTRICITY   = .0020263
INCLINATION    = 81.2347
RA_OF_ASC_NODE = 333.6247
ARG_OF_PERICENTER = 141.8867
MEAN_ANOMALY   = 218.3814

EPHEMERIS_TYPE = 0
CLASSIFICATION_TYPE = U
NORAD_CAT_ID   = 12465
ELEMENT_SET_NO = 999
REV_AT_EPOCH   = 43279
BSTAR          = .2774466E-3
MEAN_MOTION_DOT = .11535E-3
MEAN_MOTION_DDOT = 0

CCSDS_OMM_VERS = 2.0
CREATION_DATE  = 
ORIGINATOR     = 

OBJECT_NAME    = SL-3 R/B
OBJECT_ID      = 1981-103B
CENTER_NAME    = EARTH
REF_FRAME      = TEME
TIME_SYSTEM    = UTC
MEAN_ELEMENT_THEORY = SGP/SGP4

EPOCH          = 2026-02-01T01:36:15.341472
MEAN_MOTION    = 15.20927559
ECCENTRICITY   = .00141134
INCLINATION    = 81.1569
RA_OF_ASC_NODE = 256.3875
ARG_OF_PERICENTER = 50.7652
MEAN_ANOMALY   = 309.4829

EPHEMERIS_TYPE = 0
CLASSIFICATION_TYPE = U
NORAD_CAT_ID   = 12904
ELEMENT_SET_NO = 999
REV_AT_EPOCH   = 96766
BSTAR          = .17878839E-3
MEAN_MOTION_DOT = .399E-4
MEAN_MOTION_DDOT = 0

CCSDS_OMM_VERS = 2.0
CREATION_DATE  = 
ORIGINATOR     = 

OBJECT_NAME    = SL-3 R/B
OBJECT_ID      = 1982-013B
CENTER_NAME    = EARTH
REF_FRAME      = TEME
TIME_SYSTEM    = UTC
MEAN_ELEMENT_THEORY = SGP/SGP4

EPOCH          = 2026-02-01T05:20:04.007040
MEAN_MOTION    = 15.21601460
ECCENTRICITY   = .00218916
INCLINATION    = 81.1726
RA_OF_ASC_NODE = 203.4947
ARG_OF_PERICENTER = 304.2425
MEAN_ANOMALY   = 55.6732

EPHEMERIS_TYPE = 0
CLASSIFICATION_TYPE = U
NORAD_CAT_ID   = 13068
ELEMENT_SET_NO = 999
REV_AT_EPOCH   = 39880
BSTAR          = .20289684E-3
MEAN_MOTION_DOT = .4632E-4
MEAN_MOTION_DDOT = 0

CCSDS_OMM_VERS = 2.0
CREATION_DATE  = 
ORIGINATOR     = 

OBJECT_NAME    = SL-3 R/B
OBJECT_ID      = 1982-039B
CENTER_NAME    = EARTH
REF_FRAME      = TEME
TIME_SYSTEM    = UTC
MEAN_ELEMENT_THEORY = SGP/SGP4

EPOCH          = 2026-02-01T01:51:51.761952
MEAN_MOTION    = 15.09873671
ECCENTRICITY   = .00300721
INCLINATION    = 81.1632
RA_OF_ASC_NODE = 258.1583
ARG_OF_PERICENTER = 84.2222
MEAN_ANOMALY   = 276.2430

EPHEMERIS_TYPE = 0
CLASSIFICATION_TYPE = U
NORAD_CAT_ID   = 13154
ELEMENT_SET_NO = 999
REV_AT_EPOCH   = 37611
BSTAR          = .13813872E-3
MEAN_MOTION_DOT = .2284E-4
MEAN_MOTION_DDOT = 0

