ATLAS CENTAUR R/B       
1 06155U 72065B   26031.73330854  .00001448  00000+0  20098-3 0  9990
2 06155  35.0003 162.3108 0033175  58.4590 301.9344 14.77573103835795
SL-8 R/B                
1 08459U 75112B   26032.12330173  .00000235  00000+0  85914-4 0  9995
2 08459  74.0598  86.1830 0015752 191.3400 168.7402 14.38184675626611
SL-3 R/B                
1 10114U 77057B   26032.05952216  .00011766  00000+0  25623-3 0  9997
2 10114  97.5713 202.4110 0008404  59.8005 300.4074 15.44410204662674
SEASAT 1                
1 10967U 78064A   26032.31867138  .00000333  00000+0  13167-3 0  9997
2 10967 108.0165  49.1691 0001418 290.3265  69.7728 14.46127665501251
SL-14 R/B               
1 11267U 79011B   26031.75846021  .00000819  00000+0  78410-4 0  9991
2 11267  82.5262 131.6091 0016135 175.7366 184.3994 14.91858290523270
SL-8 R/B                
1 11574U 79089B   26031.77666890  .00000346  00000+0  11268-3 0  9995
2 11574  74.0694 159.3689 0016250 337.0632  22.9796 14.42325667430786
SL-14 R/B               
1 11672U 80005B   26031.94858337  .00000792  00000+0  77706-4 0  9997
2 11672  82.5168 342.0765 0014211 288.3604  71.6069 14.90876407471014
SL-8 R/B                
1 12139U 81003B   26031.89728249  .00022499  00000+0  59742-3 0  9994
2 12139  82.9397 324.0080 0265216 307.2887  50.4425 15.09542500309126
SL-3 R/B                
1 12465U 81046B   26032.10820135  .00011535  00000+0  27745-3 0  9992
2 12465  81.2347 333.6247 0020263 141.8867 218.3814 15.40947750432795
SL-3 R/B                
1 12904U 81103B   26032.06684423  .00003990  00000+0  17879-3 0  9990
2 12904  81.1569 256.3875 0014113  50.7652 309.4829 15.20927559967663
SL-3 R/B                
1 13068U 82013B   26032.22226860  .00004632  00000+0  20290-3 0  9993
2 13068  81.1726 203.4947 0021891 304.2425  55.6732 15.21601460398807
SL-3 R/B                
1 13154U 82039B   26032.07768243  .00002284  00000+0  13814-3 0  9991
2 13154  81.1632 258.1583 0030072  84.2222 276.2430 15.09873671376110
